62308,STARLINK-32706,2025-12-13T22:53:40.214688,2025-12-14T13:04:14.456627,53.1599,232.42,0.0001171,87.3292,272.7843,15.30182221,-37465-4,5625,1 62308U 24239H   25347.95393767 -.00001468  00000+0 -37465-4 0  9998,2 62308  53.1599 232.4200 0001171  87.3292 272.7843 15.30182221 56253
62309,STARLINK-32678,2025-12-13T22:37:40.829088,2025-12-14T13:04:14.456627,53.1569,219.5684,0.0001108,93.4582,266.6546,15.30166901,80530-3,5643,1 62309U 24239J   25347.94283367  .00023543  00000+0  80530-3 0  9998,2 62309  53.1569 219.5684 0001108  93.4582 266.6546 15.30166901 56432
62310,STARLINK-32696,2025-12-13T22:49:07.125888,2025-12-14T13:04:14.456627,53.1601,232.4047,0.0001352,82.3535,277.7619,15.30154818,11599-2,5625,1 62310U 24239K   25347.95077692  .00034102  00000+0  11599-2 0  9994,2 62310  53.1601 232.4047 0001352  82.3535 277.7619 15.30154818 56252
62311,STARLINK-32700,2025-12-13T20:59:04.001568,2025-12-14T13:04:14.456627,53.1569,219.8554,0.0001259,79.3144,280.7999,15.30169248,11414-2,5641,1 62311U 24239L   25347.87435187  .00033565  00000+0  11414-2 0  9991,2 62311  53.1569 219.8554 0001259  79.3144 280.7999 15.30169248 56412
62312,STARLINK-32698,2025-12-13T22:58:13.427040,2025-12-14T13:04:14.456627,53.1589,232.4424,0.0001766,66.635,293.4836,15.30166374,-53389-3,5625,1 62312U 24239M   25347.95709985 -.00016122  00000+0 -53389-3 0  9991,2 62312  53.1589 232.4424 0001766  66.6350 293.4836 15.30166374 56253
62313,STARLINK-32634,2025-12-13T21:52:05.405088,2025-12-14T13:04:14.456627,53.1593,219.374,0.000143,64.9649,295.15,15.30195192,11871-3,5643,1 62313U 24239N   25347.91117367  .00003158  00000+0  11871-3 0  9998,2 62313  53.1593 219.3740 0001430  64.9649 295.1500 15.30195192 56431
62314,STARLINK-32651,2025-12-13T22:08:04.830432,2025-12-14T13:04:14.456627,53.1591,232.2213,9.21e-05,101.4247,258.6857,15.30204482,10342-2,5625,1 62314U 24239P   25347.92227813  .00030400  00000+0  10342-2 0  9999,2 62314  53.1591 232.2213 0000921 101.4247 258.6857 15.30204482 56256
62315,STARLINK-32627,2025-12-13T22:55:10.968384,2025-12-14T13:04:14.456627,53.1594,232.3804,0.0001544,91.4342,268.6836,15.30162049,-11115-3,5625,1 62315U 24239Q   25347.95498806 -.00003646  00000+0 -11115-3 0  9999,2 62315  53.1594 232.3804 0001544  91.4342 268.6836 15.30162049 56253
62316,STARLINK-32596,2025-12-13T22:44:33.586944,2025-12-14T13:04:14.456627,53.1604,232.3796,0.0001404,70.3103,289.8049,15.30154138,14011-2,5625,1 62316U 24239R   25347.94761096  .00041310  00000+0  14011-2 0  9998,2 62316  53.1604 232.3796 0001404  70.3103 289.8049 15.30154138 56253
62317,STARLINK-32519,2025-12-13T23:10:56.931744,2025-12-14T13:04:14.456627,53.1604,218.9986,0.000127,80.9017,279.2127,15.3018044,88680-3,5644,1 62317U 24239S   25347.96593671  .00025981  00000+0  88680-3 0  9993,2 62317  53.1604 218.9986 0001270  80.9017 279.2127 15.30180440 56443
62319,STARLINK-32527,2025-12-13T23:07:54.670944,2025-12-14T13:04:14.456627,53.1589,218.9877,0.000121,80.7271,279.3867,15.30183141,90989-5,5644,1 62319U 24239U   25347.96382721 -.00000090  00000+0  90989-5 0  9999,2 62319  53.1589 218.9877 0001210  80.7271 279.3867 15.30183141 56443
62320,STARLINK-32481,2025-12-13T23:17:01.851648,2025-12-14T13:04:14.456627,53.1602,219.0283,0.000163,61.4944,298.6221,15.30187664,-51826-3,5644,1 62320U 24239V   25347.97016032 -.00015671  00000+0 -51826-3 0  9998,2 62320  53.1602 219.0283 0001630  61.4944 298.6221 15.30187664 56445
62321,STARLINK-32645,2025-12-13T21:49:03.202176,2025-12-14T13:04:14.456627,53.1593,219.3592,0.0001288,82.2449,277.8698,15.30186432,-78516-6,5643,1 62321U 24239W   25347.90906484 -.00000382  00000+0 -78516-6 0  9992,2 62321  53.1593 219.3592 0001288  82.2449 277.8698 15.30186432 56439
62322,STARLINK-32654,2025-12-13T23:36:03.601728,2025-12-14T13:04:14.456627,53.1567,231.891,0.0001057,74.9668,285.145,15.30174701,16950-2,5626,1 62322U 24239X   25347.98337502  .00050141  00000+0  16950-2 0  9996,2 62322  53.1567 231.8910 0001057  74.9668 285.1450 15.30174701 56264
62409,STARLINK-11444 [DTC],2025-12-13T22:58:44.936256,2025-12-14T13:04:14.456627,42.999,324.7402,0.0001899,301.3056,58.7625,15.70833897,11715-2,5599,1 62409U 24249A   25347.95746454  .00152629  00000+0  11715-2 0  9998,2 62409  42.9990 324.7402 0001899 301.3056  58.7625 15.70833897 55995
62410,STARLINK-11493 [DTC],2025-12-13T22:00:00.999936,2025-12-14T13:04:14.456627,42.9995,325.0602,0.0001691,243.6082,215.5004,15.70754583,10181-2,598,1 62410U 24249B   25347.91667824  .00131810  00000+0  10181-2 0  9994,2 62410  42.9995 325.0602 0001691 243.6082 215.5004 15.70754583  5987
62411,STARLINK-11453 [DTC],2025-12-13T23:52:04.798272,2025-12-14T13:04:14.456627,42.9986,324.1417,0.0002539,282.8276,77.2307,15.7077438,19869-2,5600,1 62411U 24249C   25347.99449998  .00261985  00000+0  19869-2 0  9992,2 62411  42.9986 324.1417 0002539 282.8276  77.2307 15.70774380 56009
62412,STARLINK-11462 [DTC],2025-12-13T08:44:05.908992,2025-12-14T13:04:14.456627,42.9996,328.0158,0.0001904,255.2999,104.7657,15.70947374,12278-2,5590,1 62412U 24249D   25347.36395728  .00160911  00000+0  12278-2 0  9999,2 62412  42.9996 328.0158 0001904 255.2999 104.7657 15.70947374 55904
62413,STARLINK-11441 [DTC],2025-12-13T15:51:21.339360,2025-12-14T13:04:14.456627,42.997,325.9311,0.0003039,50.3261,309.7874,15.70869156,17466-2,5595,1 62413U 24249E   25347.66066365  .00230281  00000+0  17466-2 0  9997,2 62413  42.9970 325.9311 0003039  50.3261 309.7874 15.70869156 55955
62414,STARLINK-11445 [DTC],2025-12-13T23:44:26.456640,2025-12-14T13:04:14.456627,42.9987,324.0979,0.0001008,199.9028,160.18,15.70862675,24567-2,5600,1 62414U 24249F   25347.98919510  .00327853  00000+0  24567-2 0  9994,2 62414  42.9987 324.0979 0001008 199.9028 160.1800 15.70862675 56003
62415,STARLINK-11355 [DTC],2025-12-13T15:52:39.636768,2025-12-14T13:04:14.456627,42.9994,325.9279,0.0002009,47.1337,312.9699,15.70879008,19233-2,5595,1 62415U 24249G   25347.66156987  .00254460  00000+0  19233-2 0  9998,2 62415  42.9994 325.9279 0002009  47.1337 312.9699 15.70879008 55958
62416,STARLINK-11446 [DTC],2025-12-13T23:13:51.420000,2025-12-14T13:04:14.456627,42.9971,323.9244,0.0001236,186.5849,173.5003,15.70958113,19088-2,5600,1 62416U 24249H   25347.96795625  .00253346  00000+0  19088-2 0  9990,2 62416  42.9971 323.9244 0001236 186.5849 173.5003 15.70958113 56003
62417,STARLINK-11428 [DTC],2025-12-13T22:43:27.849504,2025-12-14T13:04:14.456627,42.9978,324.6574,0.0001695,258.1224,101.9454,15.70955013,20891-2,5599,1 62417U 24249J   25347.94685011  .00278124  00000+0  20891-2 0  9991,2 62417  42.9978 324.6574 0001695 258.1224 101.9454 15.70955013 55995
62418,STARLINK-11447 [DTC],2025-12-13T15:43:41.679264,2025-12-14T13:04:14.456627,42.9985,325.8838,0.0001472,314.7917,45.2831,15.71033973,24553-2,5595,1 62418U 24249K   25347.65534351  .00330126  00000+0  24553-2 0  9990,2 62418  42.9985 325.8838 0001472 314.7917  45.2831 15.71033973 55959
62419,STARLINK-11439 [DTC],2025-12-13T23:36:47.562912,2025-12-14T13:04:14.456627,42.9978,324.053,0.0001294,253.5894,106.4831,15.7083069,15688-2,5600,1 62419U 24249L   25347.98388383  .00205828  00000+0  15688-2 0  9998,2 62419  42.9978 324.0530 0001294 253.5894 106.4831 15.70830690 56005
62420,STARLINK-11434 [DTC],2025-12-13T22:51:06.587712,2025-12-14T13:04:14.456627,43.0002,324.6921,0.0001151,251.3062,108.768,15.70979981,24056-2,5599,1 62420U 24249M   25347.95215958  .00322394  00000+0  24056-2 0  9991,2 62420  43.0002 324.6921 0001151 251.3062 108.7680 15.70979981 55993
62421,STARLINK-11461 [DTC],2025-12-13T07:20:11.904576,2025-12-14T13:04:14.456627,43.0001,328.438,0.0001286,252.7681,107.3046,15.70925108,75364-3,5589,1 62421U 24249N   25347.30569334  .00097747  00000+0  75364-3 0  9991,2 62421  43.0001 328.4380 0001286 252.7681 107.3046 15.70925108 55897
62422,STARLINK-32692,2025-12-13T07:53:20.622624,2025-12-14T13:04:14.456627,42.9999,89.761,0.0001551,297.0093,63.06,15.27620735,18103-2,5451,1 62422U 24249P   25347.32871091  .00049954  00000+0  18103-2 0  9994,2 62422  42.9999  89.7610 0001551 297.0093  63.0600 15.27620735 54511
62423,STARLINK-32680,2025-12-13T15:41:37.493952,2025-12-14T13:04:14.456627,43.0006,80.1213,0.0001319,206.7192,153.3592,15.27595123,15585-2,5465,1 62423U 24249Q   25347.65390618  .00042895  00000+0  15585-2 0  9990,2 62423  43.0006  80.1213 0001319 206.7192 153.3592 15.27595123 54656
62424,STARLINK-32638,2025-12-13T14:29:37.314240,2025-12-14T13:04:14.456627,42.9999,91.8701,0.0001013,253.6694,106.4046,15.27611226,86243-3,5451,1 62424U 24249R   25347.60390410  .00023568  00000+0  86243-3 0  9992,2 62424  42.9999  91.8701 0001013 253.6694 106.4046 15.27611226 54517
62425,STARLINK-32283,2025-12-13T23:03:28.047456,2025-12-14T13:04:14.456627,43.0044,74.6657,0.0001775,258.141,101.9243,15.27617253,87983-3,5474,1 62425U 24249S   25347.96074129  .00024056  00000+0  87983-3 0  9993,2 62425  43.0044  74.6657 0001775 258.1410 101.9243 15.27617253 54741
62426,STARLINK-32676,2025-12-13T14:42:34.965216,2025-12-14T13:04:14.456627,42.9996,80.6789,0.0001447,310.5221,49.5504,15.27644859,91201-3,5464,1 62426U 24249T   25347.61290469  .00024969  00000+0  91201-3 0  9994,2 62426  42.9996  80.6789 0001447 310.5221  49.5504 15.27644859 54646
62427,STARLINK-32659,2025-12-13T15:56:24.078912,2025-12-14T13:04:14.456627,43.0009,80.2027,0.0001311,246.5067,113.5647,15.27617625,94448-3,5465,1 62427U 24249U   25347.66416758  .00025849  00000+0  94448-3 0  9995,2 62427  43.0009  80.2027 0001311 246.5067 113.5647 15.27617625 54653
62428,STARLINK-32614,2025-12-13T15:38:33.854208,2025-12-14T13:04:14.456627,42.9984,87.8952,0.0001452,278.263,81.8057,15.27616991,90059-3,5456,1 62428U 24249V   25347.65178072  .00024631  00000+0  90059-3 0  9991,2 62428  42.9984  87.8952 0001452 278.2630  81.8057 15.27616991 54565
